{
    "weatherObservations": [
        {
            "clouds": "n/a",
            "weatherCondition": "n/a",
            "observation": "KI39 091240Z AUTO 19006KT 10SM CLR 15/08 A3011 RMK AO2",
            "windDirection": 190,
            "ICAO": "KI39",
            "lng": -84.33333333333333,
            "temperature": "15",
            "dewPoint": "8",
            "windSpeed": "06",
            "humidity": 62,
            "stationName": "RICHMOND/MADISON",
            "datetime": "2016-03-09 12:40:00",
            "lat": 37.63333333333333
        },
        {
            "clouds": "overcast",
            "weatherCondition": "mist",
            "observation": "KXIH 091240Z AUTO 17013KT 2 1/2SM BR OVC012 21/20 A2969 RMK A01",
            "windDirection": 170,
            "ICAO": "KXIH",
            "cloudsCode": "OVC",
            "lng": -94.51666666666667,
            "temperature": "21",
            "dewPoint": "20",
            "weatherConditionCode": "BR",
            "windSpeed": "13",
            "humidity": 94,
            "stationName": "HIGH IS. 179A",
            "datetime": "2016-03-09 12:40:00",
            "lat": 29.183333333333334
        },
        {
            "clouds": "n/a",
            "weatherCondition": "n/a",
            "observation": "KFLY 091239Z AUTO 34006KT 10SM CLR M03/M07 A2995 RMK AO2 T10301070",
            "windDirection": 340,
            "ICAO": "KFLY",
            "lng": -104.56666666666666,
            "temperature": "-3",
            "dewPoint": "-7",
            "windSpeed": "06",
            "humidity": 73,
            "stationName": "Meadow Lake Airport",
            "datetime": "2016-03-09 12:39:00",
            "lat": 38.95
        },
        {
            "clouds": "n/a",
            "weatherCondition": "n/a",
            "observation": "KDLZ 091238Z AUTO 19007KT 10SM CLR 11/06 A3005 RMK AO2",
            "windDirection": 190,
            "ICAO": "KDLZ",
            "lng": -83.11666666666666,
            "temperature": "11",
            "dewPoint": "6",
            "windSpeed": "07",
            "humidity": 71,
            "stationName": "Delaware Municipal Airport",
            "datetime": "2016-03-09 12:38:00",
            "lat": 40.28333333333333
        },
        {
            "clouds": "n/a",
            "weatherCondition": "n/a",
            "observation": "K0CO 091236Z AUTO 30022G27KT CLR M13/M20 A2992 RMK AO2 PWINO",
            "windDirection": 300,
            "ICAO": "K0CO",
            "lng": -105.76666666666667,
            "temperature": "-13",
            "dewPoint": "-20",
            "windSpeed": "22",
            "humidity": 55,
            "stationName": "BERTHOUD PASS",
            "datetime": "2016-03-09 12:36:00",
            "lat": 39.8
        },
        {
            "clouds": "n/a",
            "weatherCondition": "n/a",
            "observation": "K05U 091235Z AUTO 12003KT 10SM CLR M01/M03 A3005 RMK A01",
            "windDirection": 120,
            "ICAO": "K05U",
            "lng": -116,
            "temperature": "-1",
            "dewPoint": "-3",
            "windSpeed": "03",
            "humidity": 86,
            "stationName": "EUREKA",
            "datetime": "2016-03-09 12:35:00",
            "lat": 39.6
        },
        {
            "clouds": "n/a",
            "weatherCondition": "n/a",
            "observation": "K0E0 091235Z AUTO 01004KT 10SM CLR M09/M11 A3000 RMK AO2 T10931111",
            "windDirection": 10,
            "ICAO": "K0E0",
            "lng": -106,
            "temperature": "-9.3",
            "dewPoint": "-11.1",
            "windSpeed": "04",
            "humidity": 86,
            "stationName": "MORIARTY",
            "datetime": "2016-03-09 12:35:00",
            "lat": 34.983333333333334
        },
        {
            "clouds": "broken clouds",
            "weatherCondition": "rain",
            "observation": "K0F2 091235Z AUTO 00000KT 7SM RA BKN008 BKN014 14/13 A2986 RMK AO2 P0005 T01350130",
            "windDirection": 0,
            "ICAO": "K0F2",
            "cloudsCode": "BKN",
            "lng": -97.78333333333333,
            "temperature": "13.5",
            "dewPoint": "13",
            "weatherConditionCode": "RA",
            "windSpeed": "00",
            "humidity": 96,
            "stationName": "BOWIE",
            "datetime": "2016-03-09 12:35:00",
            "lat": 33.6
        },
        {
            "clouds": "broken clouds",
            "weatherCondition": "haze",
            "observation": "K1R7 091235Z AUTO 14012G20KT 5SM HZ BKN010 A2990 RMK AO2",
            "windDirection": 140,
            "ICAO": "K1R7",
            "cloudsCode": "BKN",
            "lng": -90.41666666666667,
            "temperature": "",
            "dewPoint": "0",
            "weatherConditionCode": "HZ",
            "windSpeed": "12",
            "stationName": "BROOKHAVEN",
            "datetime": "2016-03-09 12:35:00",
            "lat": 31.6
        },
        {
            "clouds": "n/a",
            "weatherCondition": "n/a",
            "observation": "K2I0 091235Z AUTO 22012G16KT 10SM CLR 19/10 A3001 RMK AO2 T01910096",
            "windDirection": 220,
            "ICAO": "K2I0",
            "lng": -87.4,
            "temperature": "19.1",
            "dewPoint": "9.6",
            "windSpeed": "12",
            "humidity": 54,
            "stationName": "MADISONVILLE",
            "datetime": "2016-03-09 12:35:00",
            "lat": 37.35
        }
    ]
}